OBJECT_NAME,OBJECT_ID,EPOCH,MEAN_MOTION,ECCENTRICITY,INCLINATION,RA_OF_ASC_NODE,ARG_OF_PERICENTER,MEAN_ANOMALY,EPHEMERIS_TYPE,CLASSIFICATION_TYPE,NORAD_CAT_ID,ELEMENT_SET_NO,REV_AT_EPOCH,BSTAR,MEAN_MOTION_DOT,MEAN_MOTION_DDOT
STARLINK-37816,2026-131A,2026-07-03T14:00:20.333952,15.80819975,.00008659,97.2833,205.8130,118.8573,241.2783,0,U,69478,999,475,.18252581E-2,.364579E-2,0
STARLINK-37878,2026-131B,2026-07-04T00:46:29.649504,15.80998930,.00012897,97.2840,206.2748,121.2281,238.9114,0,U,69479,999,482,.20689234E-2,.419302E-2,0
STARLINK-37817,2026-131C,2026-07-02T16:00:01.999584,15.80776829,.0001807,97.2834,204.8472,101.2192,93.1313,0,U,69480,999,449,.21289028E-3,.40756E-3,0
STARLINK-37727,2026-131D,2026-07-04T00:35:10.005504,15.80954728,.0001458,97.2842,206.2840,117.5786,242.5631,0,U,69481,999,482,.14835522E-2,.295742E-2,0
STARLINK-37814,2026-131E,2026-07-04T04:00:03.999744,15.80879850,.0001628,97.2831,206.4364,66.5329,27.0967,0,U,69482,999,473,-.73673656E-3,-.139447E-2,0
STARLINK-37869,2026-131F,2026-07-04T00:00:02.999808,15.80795949,.00011771,97.2832,206.2639,84.5685,145.4314,0,U,69483,999,471,.31925138E-3,.61384E-3,0
STARLINK-37873,2026-131G,2026-07-04T00:30:45.084960,15.81556547,.00001845,97.2843,206.2887,121.7442,238.3845,0,U,69484,999,482,-.15030444E-1,-.2547539E-1,0
STARLINK-37892,2026-131H,2026-07-04T04:00:03.999744,15.80876895,.00013756,97.2832,206.4434,90.4136,16.0356,0,U,69485,999,473,-.70736009E-3,-.133952E-2,0
STARLINK-37893,2026-131J,2026-07-03T12:20:32.131392,15.80969910,.00011675,97.2838,205.7540,54.5748,305.5629,0,U,69486,999,474,.16976149E-2,.340434E-2,0
STARLINK-37842,2026-131K,2026-07-04T00:28:40.233504,15.80915917,.0001175,97.2831,206.2915,81.6678,278.4723,0,U,69487,999,482,.11750371E-2,.232079E-2,0
STARLINK-37449,2026-131L,2026-07-03T16:51:47.987136,15.81072024,.00014061,97.2838,205.9575,75.3533,284.7891,0,U,69488,999,477,.16560264E-2,.333366E-2,0
STARLINK-37831,2026-131M,2026-07-03T13:48:26.291520,15.80847884,.00018595,97.2857,205.8236,117.6115,242.5342,0,U,69489,999,475,.76173132E-3,.148495E-2,0
STARLINK-37879,2026-131N,2026-07-03T00:06:58.180320,15.80976960,.00018453,97.2826,205.2224,129.8721,230.2710,0,U,69490,999,466,.15485431E-2,.309512E-2,0
STARLINK-37856,2026-131P,2026-07-03T17:00:40.661280,15.80872985,.00014716,97.2827,205.9484,122.7377,237.4033,0,U,69491,999,477,.15354723E-2,.305296E-2,0
STARLINK-37568,2026-131Q,2026-07-04T00:23:15.739296,15.80965714,.00014416,97.2842,206.2961,136.7057,223.4324,0,U,69492,999,482,.18003468E-2,.361872E-2,0
STARLINK-37855,2026-131R,2026-07-04T02:03:16.795584,15.81049223,.00019592,97.2832,206.3551,121.9401,238.2058,0,U,69493,999,483,.24397077E-2,.500284E-2,0
STARLINK-37854,2026-131S,2026-07-04T00:00:02.999808,15.80795534,.00014386,97.2833,206.2630,78.3313,148.5760,0,U,69494,999,477,-.25957274E-3,-.49536E-3,0
STARLINK-37789,2026-131T,2026-07-04T00:20:00.900384,15.81026756,.00015087,97.2832,206.2987,133.7379,226.4014,0,U,69495,999,356,.23997843E-2,.491078E-2,0
STARLINK-37839,2026-131U,2026-07-04T00:30:17.488800,15.80970969,.00017138,97.2833,206.2893,128.5403,231.6019,0,U,69496,999,356,.16211912E-2,.324513E-2,0
STARLINK-37798,2026-131V,2026-07-04T00:18:55.975968,15.81009553,.000201,97.2832,206.3001,118.4215,241.7256,0,U,69497,999,356,.21195172E-2,.430305E-2,0
STARLINK-37853,2026-131W,2026-07-04T00:13:31.291680,15.80960310,.00012506,97.2844,206.3055,109.9839,250.1564,0,U,69498,999,356,.1580917E-2,.315984E-2,0
STARLINK-37849,2026-131X,2026-07-03T18:09:59.558112,15.80894864,.00009024,97.2841,206.0361,69.9292,290.2074,0,U,69499,999,352,.10469192E-2,.205937E-2,0
STARLINK-37835,2026-131Y,2026-07-03T13:38:41.874144,15.80831792,.00011979,97.2840,205.8337,107.2043,252.9357,0,U,69500,999,349,.16359749E-2,.325441E-2,0
STARLINK-37843,2026-131Z,2026-07-04T00:15:41.153472,15.81076913,.00014319,97.2833,206.3034,135.3398,224.7986,0,U,69501,999,356,.26540962E-2,.548009E-2,0
STARS-X,2026-132A,2026-07-04T02:37:54.367392,14.99082788,.00136133,97.6882,248.5607,205.9059,154.1484,0,U,69502,999,331,.14535547E-3,.1708E-4,0
2026-132B,2026-132B,2026-07-04T02:36:03.314880,14.99164507,.0013523,97.6911,248.5711,208.0142,152.0355,0,U,69503,999,331,.12104541E-3,.1416E-4,0
BRO-22,2026-132C,2026-07-04T03:58:57.160704,14.99785719,.00154281,97.6839,248.6290,221.2011,138.8049,0,U,69504,999,332,.11827972E-3,.1406E-4,0
HORN-L,2026-132D,2026-07-04T04:06:06.587712,15.08239687,.00235822,97.6898,248.7806,237.6046,122.2900,0,U,69505,999,333,.29467629E-3,.4526E-4,0
VERTECS,2026-132E,2026-07-04T03:34:50.629440,15.00955693,.00143152,97.6850,248.6615,243.8828,116.0923,0,U,69506,999,331,.26462197E-3,.332E-4,0
HORN-R,2026-132F,2026-07-04T04:36:42.255936,15.04449432,.00168982,97.6788,248.7351,236.3621,123.5994,0,U,69507,999,332,.14950121E-3,.2033E-4,0
