STARLINK-37816          
1 69478U 26131A   26184.58356868  .00364579  00000+0  18253-2 0  9991
2 69478  97.2833 205.8130 0000865 118.8573 241.2783 15.80819975  4755
STARLINK-37878          
1 69479U 26131B   26185.03228761  .00419302  00000+0  20689-2 0  9994
2 69479  97.2840 206.2748 0001289 121.2281 238.9114 15.80998930  4827
STARLINK-37817          
1 69480U 26131C   26183.66668981  .00040756  00000+0  21289-3 0  9996
2 69480  97.2834 204.8472 0001807 101.2192  93.1313 15.80776829  4491
STARLINK-37727          
1 69481U 26131D   26185.02442136  .00295742  00000+0  14836-2 0  9997
2 69481  97.2842 206.2840 0001458 117.5786 242.5631 15.80954728  4823
STARLINK-37814          
1 69482U 26131E   26185.16671296 -.00139447  00000+0 -73674-3 0  9991
2 69482  97.2831 206.4364 0001628  66.5329  27.0967 15.80879850  4730
STARLINK-37869          
1 69483U 26131F   26185.00003472  .00061384  00000+0  31925-3 0  9995
2 69483  97.2832 206.2639 0001177  84.5685 145.4314 15.80795949  4714
STARLINK-37873          
1 69484U 26131G   26185.02135515 -.02547539  00000+0 -15030-1 0  9994
2 69484  97.2843 206.2887 0000184 121.7442 238.3845 15.81556547  4827
STARLINK-37892          
1 69485U 26131H   26185.16671296 -.00133952  00000+0 -70736-3 0  9995
2 69485  97.2832 206.4434 0001375  90.4136  16.0356 15.80876895  4739
STARLINK-37893          
1 69486U 26131J   26184.51426078  .00340434  00000+0  16976-2 0  9998
2 69486  97.2838 205.7540 0001167  54.5748 305.5629 15.80969910  4746
STARLINK-37842          
1 69487U 26131K   26185.01991011  .00232079  00000+0  11750-2 0  9999
2 69487  97.2831 206.2915 0001175  81.6678 278.4723 15.80915917  4824
STARLINK-37449          
1 69488U 26131L   26184.70263874  .00333366  00000+0  16560-2 0  9999
2 69488  97.2838 205.9575 0001406  75.3533 284.7891 15.81072024  4771
STARLINK-37831          
1 69489U 26131M   26184.57530430  .00148495  00000+0  76173-3 0  9994
2 69489  97.2857 205.8236 0001859 117.6115 242.5342 15.80847884  4758
STARLINK-37879          
1 69490U 26131N   26184.00484005  .00309512  00000+0  15485-2 0  9997
2 69490  97.2826 205.2224 0001845 129.8721 230.2710 15.80976960  4661
STARLINK-37856          
1 69491U 26131P   26184.70880395  .00305296  00000+0  15355-2 0  9998
2 69491  97.2827 205.9484 0001471 122.7377 237.4033 15.80872985  4773
STARLINK-37568          
1 69492U 26131Q   26185.01615439  .00361872  00000+0  18003-2 0  9994
2 69492  97.2842 206.2961 0001441 136.7057 223.4324 15.80965714  4829
STARLINK-37855          
1 69493U 26131R   26185.08561106  .00500284  00000+0  24397-2 0  9998
2 69493  97.2832 206.3551 0001959 121.9401 238.2058 15.81049223  4836
STARLINK-37854          
1 69494U 26131S   26185.00003472 -.00049536  00000+0 -25957-3 0  9992
2 69494  97.2833 206.2630 0001438  78.3313 148.5760 15.80795534  4772
STARLINK-37789          
1 69495U 26131T   26185.01389931  .00491078  00000+0  23998-2 0  9993
2 69495  97.2832 206.2987 0001508 133.7379 226.4014 15.81026756  3561
STARLINK-37839          
1 69496U 26131U   26185.02103575  .00324513  00000+0  16212-2 0  9993
2 69496  97.2833 206.2893 0001713 128.5403 231.6019 15.80970969  3563
STARLINK-37798          
1 69497U 26131V   26185.01314787  .00430305  00000+0  21195-2 0  9995
2 69497  97.2832 206.3001 0002010 118.4215 241.7256 15.81009553  3563
STARLINK-37853          
1 69498U 26131W   26185.00938995  .00315984  00000+0  15809-2 0  9998
2 69498  97.2844 206.3055 0001250 109.9839 250.1564 15.80960310  3560
STARLINK-37849          
1 69499U 26131X   26184.75693933  .00205937  00000+0  10469-2 0  9993
2 69499  97.2841 206.0361 0000902  69.9292 290.2074 15.80894864  3523
STARLINK-37835          
1 69500U 26131Y   26184.56854021  .00325441  00000+0  16360-2 0  9991
2 69500  97.2840 205.8337 0001197 107.2043 252.9357 15.80831792  3498
STARLINK-37843          
1 69501U 26131Z   26185.01089298  .00548009  00000+0  26541-2 0  9998
2 69501  97.2833 206.3034 0001431 135.3398 224.7986 15.81076913  3567
STARS-X                 
1 69502U 26132A   26185.10965703  .00001708  00000+0  14536-3 0  9996
2 69502  97.6882 248.5607 0013613 205.9059 154.1484 14.99082788  3310
2026-132B               
1 69503U 26132B   26185.10837170  .00001416  00000+0  12105-3 0  9999
2 69503  97.6911 248.5711 0013523 208.0142 152.0355 14.99164507  3311
BRO-22                  
1 69504U 26132C   26185.16593936  .00001406  00000+0  11828-3 0  9995
2 69504  97.6839 248.6290 0015428 221.2011 138.8049 14.99785719  3329
HORN-L                  
1 69505U 26132D   26185.17090958  .00004526  00000+0  29468-3 0  9998
2 69505  97.6898 248.7806 0023582 237.6046 122.2900 15.08239687  3331
VERTECS                 
1 69506U 26132E   26185.14919710  .00003320  00000+0  26462-3 0  9994
2 69506  97.6850 248.6615 0014315 243.8828 116.0923 15.00955693  3316
HORN-R                  
1 69507U 26132F   26185.19215574  .00002033  00000+0  14950-3 0  9996
2 69507  97.6788 248.7351 0016898 236.3621 123.5994 15.04449432  3326
